[{"OBJECT_NAME":"IRIDIUM 178","OBJECT_ID":"2023-068V","EPOCH":"2026-03-09T22:29:43.646208","MEAN_MOTION":14.80237854,"ECCENTRICITY":0.00024806,"INCLINATION":86.6486,"RA_OF_ASC_NODE":66.834,"ARG_OF_PERICENTER":100.7522,"MEAN_ANOMALY":259.3979,"EPHEMERIS_TYPE":0,"CLASSIFICATION_TYPE":"U","NORAD_CAT_ID":56729,"ELEMENT_SET_NO":999,"REV_AT_EPOCH":15168,"BSTAR":8.8663606e-5,"MEAN_MOTION_DOT":7.0e-6,"MEAN_MOTION_DDOT":0},{"OBJECT_NAME":"KUIPER-00158","OBJECT_ID":"2025-217Q","EPOCH":"2026-03-09T22:33:12.550176","MEAN_MOTION":14.80564414,"ECCENTRICITY":0.00012036,"INCLINATION":51.899,"RA_OF_ASC_NODE":44.3542,"ARG_OF_PERICENTER":56.9124,"MEAN_ANOMALY":303.1954,"EPHEMERIS_TYPE":0,"CLASSIFICATION_TYPE":"U","NORAD_CAT_ID":65776,"ELEMENT_SET_NO":999,"REV_AT_EPOCH":2488,"BSTAR":0.00081284145,"MEAN_MOTION_DOT":6.074e-5,"MEAN_MOTION_DDOT":0}]
